NORAD_CAT_ID,OBJECT_NAME,OBJECT_TYPE,EPOCH,MEAN_MOTION,ECCENTRICITY,INCLINATION,RA_OF_ASC_NODE,ARG_OF_PERICENTER,MEAN_ANOMALY,BSTAR,MEAN_MOTION_DOT,MEAN_MOTION_DDOT,TLE_LINE0,TLE_LINE1,TLE_LINE2,SEMIMAJOR_AXIS,PERIOD,APOGEE,PERIGEE,DECAYED
53004.0,STARLINK-4253,PAYLOAD,2023-10-05 20:23:48,15.08839977,0.0001349,53.2149,110.8106,80.7715,279.343,3.8036e-06,-2.27e-06,0.0,0 STARLINK-4253,1 53004U 22076U   23278.84986696 -.00000227  00000-0  38036-5 0  9994,2 53004  53.2149 110.8106 0001349  80.7715 279.3430 15.08839977 69583,6917.88,95.438,540.679,538.812,0.0
53004.0,STARLINK-4253,PAYLOAD,2023-10-06 12:17:39,15.08839354,0.0001282,53.2145,107.8378,87.937,272.1769,3.2529e-05,2.3e-06,0.0,0 STARLINK-4253,1 53004U 22076U   23279.51226752  .00000230  00000-0  32529-4 0  9992,2 53004  53.2145 107.8378 0001282  87.9370 272.1769 15.08839354 69213,6917.882,95.438,540.634,538.86,0.0
53004.0,STARLINK-4253,PAYLOAD,2023-10-06 20:14:35,15.088385,0.0001281,53.215,106.35,94.1567,265.9571,0.00011747,1.582e-05,0.0,0 STARLINK-4253,1 53004U 22076U   23279.84346899  .00001582  00000-0  11747-3 0  9992,2 53004  53.2150 106.3500 0001281  94.1567 265.9571 15.08838500 69265,6917.885,95.438,540.636,538.864,0.0
53004.0,STARLINK-4253,PAYLOAD,2023-10-07 05:46:54,15.08840515,0.0001367,53.2153,104.5637,89.0231,271.0918,-1.9797e-05,-6.03e-06,0.0,0 STARLINK-4253,1 53004U 22076U   23280.24090838 -.00000603  00000-0 -19797-4 0  9996,2 53004  53.2153 104.5637 0001367  89.0231 271.0918 15.08840515 69795,6917.879,95.438,540.689,538.798,0.0
53004.0,STARLINK-4253,PAYLOAD,2023-10-07 12:08:27,15.08835792,0.0001532,53.2156,103.3745,82.6903,277.4263,0.00013411,1.847e-05,0.0,0 STARLINK-4253,1 53004U 22076U   23280.50587317  .00001847  00000-0  13411-3 0  9993,2 53004  53.2156 103.3745 0001532  82.6903 277.4263 15.08835792 69361,6917.893,95.438,540.818,538.698,0.0
53004.0,STARLINK-4253,PAYLOAD,2023-10-07 18:29:59,15.08840024,0.0001419,53.2151,102.185,88.5,271.6155,0.00015246,2.139e-05,0.0,0 STARLINK-4253,1 53004U 22076U   23280.77083127  .00002139  00000-0  15246-3 0  9995,2 53004  53.2151 102.1850 0001419  88.5000 271.6155 15.08840024 69402,6917.88,95.438,540.727,538.764,0.0
53004.0,STARLINK-4253,PAYLOAD,2023-10-08 11:59:14,15.0884099,0.0001482,53.2156,98.9153,84.4171,275.699,0.00019175,2.765e-05,0.0,0 STARLINK-4253,1 53004U 22076U   23281.49947236  .00002765  00000-0  19175-3 0  9995,2 53004  53.2156  98.9153 0001482  84.4171 275.6990 15.08840990 69514,6917.877,95.437,540.768,538.717,0.0
53004.0,STARLINK-4253,PAYLOAD,2023-10-08 18:20:46,15.08846334,0.0001427,53.2158,97.7252,87.1153,273.0002,0.00019658,2.843e-05,0.0,0 STARLINK-4253,1 53004U 22076U   23281.76442922  .00002843  00000-0  19658-3 0  9990,2 53004  53.2158  97.7252 0001427  87.1153 273.0002 15.08846334 70024,6917.861,95.437,540.713,538.739,0.0
53004.0,STARLINK-4253,PAYLOAD,2023-10-09 11:50:01,15.08839528,0.0001368,53.2157,94.4545,86.2168,273.8981,7.7515e-05,9.46e-06,0.0,0 STARLINK-4253,1 53004U 22076U   23282.49307237  .00000946  00000-0  77515-4 0  9999,2 53004  53.2157  94.4545 0001368  86.2168 273.8981 15.08839528 69661,6917.882,95.438,540.693,538.8,0.0
53004.0,STARLINK-4253,PAYLOAD,2023-10-09 18:11:33,15.08843664,0.0001457,53.2161,93.2647,91.7334,268.3826,0.00012313,1.672e-05,0.0,0 STARLINK-4253,1 53004U 22076U   23282.75803037  .00001672  00000-0  12313-3 0  9998,2 53004  53.2161  93.2647 0001457  91.7334 268.3826 15.08843664 70172,6917.869,95.437,540.742,538.726,0.0
53004.0,STARLINK-4253,PAYLOAD,2023-10-09 21:22:19,15.08849471,0.0001313,53.2168,92.6694,94.7156,265.3986,0.00020328,2.95e-05,0.0,0 STARLINK-4253,1 53004U 22076U   23282.89050675  .00002950  00000-0  20328-3 0  9990,2 53004  53.2168  92.6694 0001313  94.7156 265.3986 15.08849471 69725,6917.851,95.437,540.625,538.808,0.0
53004.0,STARLINK-4253,PAYLOAD,2023-10-10 11:40:48,15.08844309,0.0001492,53.2155,89.9926,98.267,261.8492,9.0009e-05,1.145e-05,0.0,0 STARLINK-4253,1 53004U 22076U   23283.48666873  .00001145  00000-0  90009-4 0  9998,2 53004  53.2155  89.9926 0001492  98.2670 261.8492 15.08844309 69814,6917.867,95.437,540.764,538.7,0.0
53004.0,STARLINK-4253,PAYLOAD,2023-10-10 21:13:06,15.08852909,0.0001363,53.216,88.2092,92.4035,267.7113,0.00017981,2.576e-05,0.0,0 STARLINK-4253,1 53004U 22076U   23283.88410340  .00002576  00000-0  17981-3 0  9994,2 53004  53.2160  88.2092 0001363  92.4035 267.7113 15.08852909 69870,6917.841,95.437,540.649,538.763,0.0
53004.0,STARLINK-4253,PAYLOAD,2023-10-11 03:34:39,15.08846446,0.0001249,53.215,87.0187,89.0745,271.039,0.00012951,1.774e-05,0.0,0 STARLINK-4253,1 53004U 22076U   23284.14906530  .00001774  00000-0  12951-3 0  9996,2 53004  53.2150  87.0187 0001249  89.0745 271.0390 15.08846446 70386,6917.861,95.437,540.59,538.862,0.0
53004.0,STARLINK-4253,PAYLOAD,2023-10-11 11:31:35,15.08839026,0.0001796,53.2165,85.5327,99.8521,260.2674,9.9753e-06,-1.29e-06,0.0,0 STARLINK-4253,1 53004U 22076U   23284.48026974 -.00000129  00000-0  99753-5 0  9999,2 53004  53.2165  85.5327 0001796  99.8521 260.2674 15.08839026 69962,6917.883,95.438,540.991,538.506,0.0
53004.0,STARLINK-4253,PAYLOAD,2023-10-11 17:53:07,15.08839191,0.0001411,53.2173,84.3452,87.6266,272.4887,5.4433e-05,5.78e-06,0.0,0 STARLINK-4253,1 53004U 22076U   23284.74523118  .00000578  00000-0  54433-4 0  9992,2 53004  53.2173  84.3452 0001411  87.6266 272.4887 15.08839191 70474,6917.883,95.438,540.724,538.772,0.0
53004.0,STARLINK-4253,PAYLOAD,2023-10-12 14:33:08,15.08842527,0.0001462,53.2164,80.477,93.3644,266.7516,7.7751e-05,9.5e-06,0.0,0 STARLINK-4253,1 53004U 22076U   23285.60634998  .00000950  00000-0  77751-4 0  9999,2 53004  53.2164  80.4770 0001462  93.3644 266.7516 15.08842527 70139,6917.873,95.437,540.749,538.726,0.0
53004.0,STARLINK-4253,PAYLOAD,2023-10-12 17:43:54,15.08848471,0.0001331,53.2165,79.8832,95.3122,264.8022,0.00015981,2.257e-05,0.0,0 STARLINK-4253,1 53004U 22076U   23285.73882680  .00002257  00000-0  15981-3 0  9994,2 53004  53.2165  79.8832 0001331  95.3122 264.8022 15.08848471 70156,6917.854,95.437,540.64,538.799,0.0
53004.0,STARLINK-4253,PAYLOAD,2023-10-13 03:16:13,15.08843264,0.0001183,53.2158,78.0995,95.5338,264.5789,4.0714e-05,3.6e-06,0.0,0 STARLINK-4253,1 53004U 22076U   23286.13626884  .00000360  00000-0  40714-4 0  9997,2 53004  53.2158  78.0995 0001183  95.5338 264.5789 15.08843264 70685,6917.87,95.437,540.554,538.917,0.0
53004.0,STARLINK-4253,PAYLOAD,2023-10-13 09:37:46,15.08836666,0.0001605,53.2172,76.9119,94.4538,265.6637,9.5254e-05,1.228e-05,0.0,0 STARLINK-4253,1 53004U 22076U   23286.40123472  .00001228  00000-0  95254-4 0  9995,2 53004  53.2172  76.9119 0001605  94.4538 265.6637 15.08836666 70722,6917.891,95.438,540.866,538.645,0.0
53004.0,STARLINK-4253,PAYLOAD,2023-10-13 14:23:56,15.08836404,0.0001632,53.2168,76.0198,93.4251,266.6928,-2.8074e-06,-3.33e-06,0.0,0 STARLINK-4253,1 53004U 22076U   23286.59995543 -.00000333  00000-0 -28074-5 0  9996,2 53004  53.2168  76.0198 0001632  93.4251 266.6928 15.08836404 70281,6917.891,95.438,540.885,538.627,0.0
53004.0,STARLINK-4253,PAYLOAD,2023-10-13 17:34:42,15.08838258,0.0001636,53.2178,75.4232,90.477,269.6409,0.00012478,1.698e-05,0.0,0 STARLINK-4253,1 53004U 22076U   23286.73243532  .00001698  00000-0  12478-3 0  9998,2 53004  53.2178  75.4232 0001636  90.4770 269.6409 15.08838258 70300,6917.886,95.438,540.882,538.619,0.0
53004.0,STARLINK-4253,PAYLOAD,2023-10-14 14:14:42,15.08845301,0.0001404,53.2163,71.5576,92.5649,267.5504,0.00016316,2.31e-05,0.0,0 STARLINK-4253,1 53004U 22076U   23287.59355163  .00002310  00000-0  16316-3 0  9994,2 53004  53.2163  71.5576 0001404  92.5649 267.5504 15.08845301 70437,6917.864,95.437,540.7,538.758,0.0
53004.0,STARLINK-4253,PAYLOAD,2023-10-14 17:25:28,15.08852971,0.000137,53.2165,70.9621,85.0316,275.0832,0.0002094,3.047e-05,0.0,0 STARLINK-4253,1 53004U 22076U   23287.72602779  .00003047  00000-0  20940-3 0  9993,2 53004  53.2165  70.9621 0001370  85.0316 275.0832 15.08852971 70926,6917.841,95.437,540.653,538.758,0.0
53004.0,STARLINK-4253,PAYLOAD,2023-10-15 14:05:30,15.08835439,0.0001376,53.2163,67.0969,93.3977,266.7173,6.3245e-05,7.19e-06,0.0,0 STARLINK-4253,1 53004U 22076U   23288.58715826  .00000719  00000-0  63245-4 0  9995,2 53004  53.2163  67.0969 0001376  93.3977 266.7173 15.08835439 70584,6917.894,95.438,540.711,538.807,0.0
53004.0,STARLINK-4253,PAYLOAD,2023-10-15 18:51:39,15.08842916,0.000143,53.2167,66.2038,95.272,264.8435,0.0001811,2.596e-05,0.0,0 STARLINK-4253,1 53004U 22076U   23288.78587602  .00002596  00000-0  18110-3 0  9991,2 53004  53.2167  66.2038 0001430  95.2720 264.8435 15.08842916 71088,6917.871,95.437,540.726,538.747,0.0
53004.0,STARLINK-4253,PAYLOAD,2023-10-16 13:56:16,15.08857512,0.0001415,53.2176,62.6337,96.7408,263.3745,0.000387,5.879e-05,0.0,0 STARLINK-4253,1 53004U 22076U   23289.58074934  .00005879  00000-0  38700-3 0  9993,2 53004  53.2176  62.6337 0001415  96.7408 263.3745 15.08857512 70739,6917.827,95.436,540.671,538.713,0.0
53004.0,STARLINK-4253,PAYLOAD,2023-10-16 15:31:39,15.08859693,0.0001436,53.2176,62.3362,96.9746,263.141,0.0005575,8.601e-05,0.0,0 STARLINK-4253,1 53004U 22076U   23289.64698941  .00008601  00000-0  55750-3 0  9990,2 53004  53.2176  62.3362 0001436  96.9746 263.1410 15.08859693 71217,6917.82,95.436,540.679,538.692,0.0
53004.0,STARLINK-4253,PAYLOAD,2023-10-17 12:11:41,15.08841907,0.0001337,53.2187,58.4695,91.7755,268.3391,0.00012202,1.655e-05,0.0,0 STARLINK-4253,1 53004U 22076U   23290.50811553  .00001655  00000-0  12202-3 0  9990,2 53004  53.2187  58.4695 0001337  91.7755 268.3391 15.08841907 71345,6917.875,95.437,540.664,538.815,0.0
53004.0,STARLINK-4253,PAYLOAD,2023-10-18 12:02:28,15.0883277,0.0001386,53.2187,54.0093,91.7639,268.3512,0.00018404,2.642e-05,0.0,0 STARLINK-4253,1 53004U 22076U   23291.50172254  .00002642  00000-0  18404-3 0  9996,2 53004  53.2187  54.0093 0001386  91.7639 268.3512 15.08832770 71493,6917.902,95.438,540.726,538.809,0.0
